CALSPHERE 1             
1 00900U 64063C   21341.61878211  .00000300  00000+0  31064-3 0  9992
2 00900  90.1697  37.4669 0026226 235.0980 282.3382 13.73635105844326
CALSPHERE 2             
1 00902U 64063E   21341.50311441  .00000048  00000+0  58458-4 0  9995
2 00902  90.1831  40.4155 0017867 351.2251  76.1110 13.52703082632820
LCS 1                   
1 01361U 65034C   21341.56075631 -.00000012  00000+0 -26987-2 0  9991
2 01361  32.1367 140.9025 0013304 278.2974  81.6015  9.89300745 46226
TEMPSAT 1               
1 01512U 65065E   21341.46643931  .00000038  00000+0  58319-4 0  9998
2 01512  89.9047 220.3500 0068965 208.4689 327.5441 13.33442534739783
CALSPHERE 4A            
1 01520U 65065H   21341.45355576  .00000062  00000+0  10151-3 0  9999
2 01520  90.0026 130.1766 0071092  85.0850 336.5447 13.35861151742027
OPS 5712 (P/L 160)      
1 02826U 67053A   21341.57306024  .00000774  00000+0  21642-3 0  9992
2 02826  69.9287  18.9466 0010945 264.9571  95.0313 14.49824336824917
OPS 5712 (P/L 153)      
1 02874U 67053H   21341.45292727 -.00000016  00000+0  27095-4 0  9995
2 02874  69.9752  56.3880 0008085 204.1604 155.9124 13.96382115776027
SURCAL 150B             
1 02909U 67053J   21341.51678870  .00001196  00000+0  24748-3 0  9998
2 02909  69.9482  17.6831 0008801 282.4365  77.5790 14.62796099835535
RIGIDSPHERE 2 (LCS 4)   
1 05398U 71067E   21341.53707405  .00000246  00000+0  80245-4 0  9992
2 05398  87.6221  75.9539 0061287 299.1668  60.3405 14.34069007636755
COSMOS 2493 (SKRL-756 1)
1 39490U 13078A   21341.54329795  .00000442  00000+0  44302-4 0  9995
2 39490  82.4200  58.0357 0017583  18.5978 341.5878 14.88946762431136
COSMOS 2494 (SKRL-756 2)
1 39491U 13078B   21341.56712023  .00000453  00000+0  43866-4 0  9994
2 39491  82.4200  52.2037 0021611 355.0767   5.0235 14.90353863431675
